NORAD_CAT_ID,OBJECT_NAME,OBJECT_TYPE,EPOCH,MEAN_MOTION,ECCENTRICITY,INCLINATION,RA_OF_ASC_NODE,ARG_OF_PERICENTER,MEAN_ANOMALY,BSTAR,MEAN_MOTION_DOT,MEAN_MOTION_DDOT,TLE_LINE0,TLE_LINE1,TLE_LINE2,SEMIMAJOR_AXIS,PERIOD,APOGEE,PERIGEE,DECAYED
51152.0,STARLINK-3364,PAYLOAD,2023-11-04 02:02:57,15.10489789,0.000154,53.2151,194.193,105.9361,254.1802,0.00017284,2.587e-05,0.0,0 STARLINK-3364,1 51152U 22005BA  23308.08538885  .00002587  00000-0  17284-3 0  9991,2 51152  53.2151 194.1930 0001540 105.9361 254.1802 15.10489789100392,6912.842,95.333,535.772,533.643,0.0
51152.0,STARLINK-3364,PAYLOAD,2023-11-04 09:59:23,15.10469513,0.0001824,53.2163,192.7036,85.4643,274.6558,-8.6693e-05,-1.735e-05,0.0,0 STARLINK-3364,1 51152U 22005BA  23308.41624228 -.00001735  00000-0 -86693-4 0  9992,2 51152  53.2163 192.7036 0001824  85.4643 274.6558 15.10469513100440,6912.904,95.335,536.03,533.508,0.0
51152.0,STARLINK-3364,PAYLOAD,2023-11-04 21:06:36,15.10189691,0.0001356,53.216,190.6216,93.8516,266.2632,-0.0036156,-0.00059515,0.0,0 STARLINK-3364,1 51152U 22005BA  23308.87959200 -.00059515  00000-0 -36156-2 0  9999,2 51152  53.2160 190.6216 0001356  93.8516 266.2632 15.10189691100510,6913.758,95.352,536.561,534.685,0.0
51152.0,STARLINK-3364,PAYLOAD,2023-11-04 22:41:57,15.10129273,0.0001089,53.2157,190.3244,82.5171,277.5946,-0.0043492,-0.00071295,0.0,0 STARLINK-3364,1 51152U 22005BA  23308.94580129 -.00071295  00000-0 -43492-2 0  9997,2 51152  53.2157 190.3244 0001089  82.5171 277.5946 15.10129273 99418,6913.942,95.356,536.56,535.054,0.0
51152.0,STARLINK-3364,PAYLOAD,2023-11-05 01:52:35,15.10075417,0.0001694,53.2151,189.7295,88.931,271.1877,-0.0049028,-0.00080118,0.0,0 STARLINK-3364,1 51152U 22005BA  23309.07819300 -.00080118  00000-0 -49028-2 0  9993,2 51152  53.2151 189.7295 0001694  88.9310 271.1877 15.10075417100547,6914.107,95.359,537.143,534.801,0.0
51152.0,STARLINK-3364,PAYLOAD,2023-11-05 09:49:16,15.09893336,0.0002683,53.2161,188.2417,82.728,277.4017,-0.0064439,-0.00104341,0.0,0 STARLINK-3364,1 51152U 22005BA  23309.40922334 -.00104341  00000-0 -64439-2 0  9990,2 51152  53.2161 188.2417 0002683  82.7280 277.4017 15.09893336100591,6914.663,95.371,538.383,534.672,0.0
51152.0,STARLINK-3364,PAYLOAD,2023-11-05 19:21:24,15.09628023,0.0001229,53.2146,186.4546,130.9056,229.2043,-0.0085313,-0.00136418,0.0,0 STARLINK-3364,1 51152U 22005BA  23309.80652808 -.00136418  00000-0 -85313-2 0  9994,2 51152  53.2146 186.4546 0001229 130.9056 229.2043 15.09628023100659,6915.473,95.388,538.188,536.488,0.0
51152.0,STARLINK-3364,PAYLOAD,2023-11-05 22:32:08,15.09367079,0.0001572,53.2166,185.8595,82.128,277.989,-0.012888,-0.00202597,0.0,0 STARLINK-3364,1 51152U 22005BA  23309.93898303 -.00202597  00000-0 -12888-1 0  9998,2 51152  53.2166 185.8595 0001572  82.1280 277.9890 15.09367079 99564,6916.27,95.404,539.222,537.048,0.0
51152.0,STARLINK-3364,PAYLOAD,2023-11-06 06:00:00,15.08843016,0.0001182,53.2156,184.4653,85.5522,165.0839,-0.0021304,-0.00034036,0.0,0 STARLINK-3364,1 51152U 22005BA  23310.25001157 -.00034036  00000-0 -21304-2 0  9993,2 51152  53.2156 184.4653 0001182  85.5522 165.0839 15.08843016100726,6917.871,95.437,540.554,538.918,0.0
51152.0,STARLINK-3364,PAYLOAD,2023-11-06 14:00:01,15.0878968,0.0001189,53.2159,182.9674,90.7754,171.5053,0.004743,0.00075906,0.0,0 STARLINK-3364,1 51152U 22005BA  23310.58335648  .00075906  00000-0  47430-2 0  9991,2 51152  53.2159 182.9674 0001189  90.7754 171.5053 15.08789680  5772,6918.034,95.441,540.722,539.077,0.0
51152.0,STARLINK-3364,PAYLOAD,2023-11-06 22:00:00,15.08839835,0.0001237,53.216,181.4729,79.5323,194.2419,-0.001494,-0.00023986,0.0,0 STARLINK-3364,1 51152U 22005BA  23310.91667824 -.00023986  00000-0 -14940-2 0  9995,2 51152  53.2160 181.4729 0001237  79.5323 194.2419 15.08839835100828,6917.881,95.438,540.602,538.89,0.0
51152.0,STARLINK-3364,PAYLOAD,2023-11-07 14:00:01,15.08834434,0.0001164,53.2162,178.4785,90.1216,206.8981,0.0041996,0.00067176,0.0,0 STARLINK-3364,1 51152U 22005BA  23311.58335648  .00067176  00000-0  41996-2 0  9993,2 51152  53.2162 178.4785 0001164  90.1216 206.8981 15.08834434100922,6917.897,95.438,540.568,538.957,0.0
51152.0,STARLINK-3364,PAYLOAD,2023-11-07 22:00:00,15.08874534,0.00012,53.2161,176.9839,82.5531,225.9978,-0.0043547,-0.00068993,0.0,0 STARLINK-3364,1 51152U 22005BA  23311.91667824 -.00068993  00000-0 -43547-2 0  9998,2 51152  53.2161 176.9839 0001200  82.5531 225.9978 15.08874534100978,6917.775,95.435,540.47,538.81,0.0
51152.0,STARLINK-3364,PAYLOAD,2023-11-08 14:00:01,15.08825354,0.0001158,53.216,173.9895,99.1555,232.5893,0.003234,0.00051537,0.0,0 STARLINK-3364,1 51152U 22005BA  23312.58334491  .00051537  00000-0  32340-2 0  9996,2 51152  53.2160 173.9895 0001158  99.1555 232.5893 15.08825354101076,6917.925,95.438,540.591,538.989,0.0
51152.0,STARLINK-3364,PAYLOAD,2023-11-08 22:00:00,15.08869838,0.0001158,53.2158,172.495,84.4355,258.9085,-0.0038787,-0.00061539,0.0,0 STARLINK-3364,1 51152U 22005BA  23312.91667824 -.00061539  00000-0 -38787-2 0  9998,2 51152  53.2158 172.4950 0001158  84.4355 258.9085 15.08869838  5774,6917.789,95.436,540.455,538.853,0.0
51152.0,STARLINK-3364,PAYLOAD,2023-11-09 00:00:00,15.08844251,0.0001153,53.2158,172.1211,82.1295,354.1244,-0.0013716,-0.00022053,0.0,0 STARLINK-3364,1 51152U 22005BA  23313.00001157 -.00022053  00000-0 -13716-2 0  9993,2 51152  53.2158 172.1211 0001153  82.1295 354.1244 15.08844251101140,6917.867,95.437,540.53,538.935,0.0
51152.0,STARLINK-3364,PAYLOAD,2023-11-09 20:19:51,15.08841486,0.0001436,53.2168,168.3239,116.4315,243.6825,5.8806e-05,6.48e-06,0.0,0 STARLINK-3364,1 51152U 22005BA  23313.84712442  .00000648  00000-0  58806-4 0  9996,2 51152  53.2168 168.3239 0001436 116.4315 243.6825 15.08841486101263,6917.876,95.437,540.734,538.747,0.0
51152.0,STARLINK-3364,PAYLOAD,2023-11-09 21:55:14,15.08840314,0.0001172,53.2156,168.0229,100.0377,260.0747,0.00013589,1.876e-05,0.0,0 STARLINK-3364,1 51152U 22005BA  23313.91336523  .00001876  00000-0  13589-3 0  9998,2 51152  53.2156 168.0229 0001172 100.0377 260.0747 15.08840314100163,6917.879,95.438,540.555,538.934,0.0
51152.0,STARLINK-3364,PAYLOAD,2023-11-10 20:10:39,15.08832034,0.0001215,53.2165,163.8562,88.6696,271.4435,0.00024346,3.588e-05,0.0,0 STARLINK-3364,1 51152U 22005BA  23314.84073081  .00003588  00000-0  24346-3 0  9993,2 51152  53.2165 163.8562 0001215  88.6696 271.4435 15.08832034101418,6917.905,95.438,540.61,538.929,0.0
51152.0,STARLINK-3364,PAYLOAD,2023-11-10 23:21:25,15.08842514,0.0001215,53.2169,163.2599,88.647,271.4661,0.00010545,1.391e-05,0.0,0 STARLINK-3364,1 51152U 22005BA  23314.97320622  .00001391  00000-0  10545-3 0  9999,2 51152  53.2169 163.2599 0001215  88.6470 271.4661 15.08842514101433,6917.873,95.437,540.578,538.897,0.0
51152.0,STARLINK-3364,PAYLOAD,2023-11-11 20:01:25,15.08847303,0.0001285,53.2168,159.3934,96.1404,263.9734,9.5812e-05,1.238e-05,0.0,0 STARLINK-3364,1 51152U 22005BA  23315.83432288  .00001238  00000-0  95812-4 0  9998,2 51152  53.2168 159.3934 0001285  96.1404 263.9734 15.08847303100458,6917.858,95.437,540.612,538.834,0.0
51152.0,STARLINK-3364,PAYLOAD,2023-11-12 13:30:40,15.08841787,0.0001326,53.2165,156.1227,96.9167,263.1976,6.7441e-05,7.86e-06,0.0,0 STARLINK-3364,1 51152U 22005BA  23316.56296680  .00000786  00000-0  67441-4 0  9997,2 51152  53.2165 156.1227 0001326  96.9167 263.1976 15.08841787100567,6917.875,95.437,540.657,538.823,0.0
51152.0,STARLINK-3364,PAYLOAD,2023-11-12 19:52:12,15.08841523,0.0001293,53.2162,154.9342,90.1652,269.9488,5.1905e-05,5.38e-06,0.0,0 STARLINK-3364,1 51152U 22005BA  23316.82792682  .00000538  00000-0  51905-4 0  9992,2 51152  53.2162 154.9342 0001293  90.1652 269.9488 15.08841523101714,6917.876,95.437,540.635,538.846,0.0
51152.0,STARLINK-3364,PAYLOAD,2023-11-13 13:21:27,15.08843217,0.0001257,53.2159,151.6636,87.3878,272.7258,6.4706e-05,7.42e-06,0.0,0 STARLINK-3364,1 51152U 22005BA  23317.55656414  .00000742  00000-0  64706-4 0  9995,2 51152  53.2159 151.6636 0001257  87.3878 272.7258 15.08843217100716,6917.871,95.437,540.605,538.866,0.0
51152.0,STARLINK-3364,PAYLOAD,2023-11-13 22:53:45,15.08844736,0.0001268,53.2158,149.8794,87.2274,272.8863,7.0839e-05,8.4e-06,0.0,0 STARLINK-3364,1 51152U 22005BA  23317.95400208  .00000840  00000-0  70839-4 0  9990,2 51152  53.2158 149.8794 0001268  87.2274 272.8863 15.08844736101889,6917.866,95.437,540.608,538.854,0.0
51152.0,STARLINK-3364,PAYLOAD,2023-11-14 13:12:14,15.08838696,0.0001386,53.2155,147.2019,89.2396,270.8755,4.6722e-05,4.56e-06,0.0,0 STARLINK-3364,1 51152U 22005BA  23318.55016660  .00000456  00000-0  46722-4 0  9999,2 51152  53.2155 147.2019 0001386  89.2396 270.8755 15.08838696100869,6917.884,95.438,540.708,538.791,0.0
51152.0,STARLINK-3364,PAYLOAD,2023-11-14 19:33:46,15.08838849,0.0001314,53.2158,146.013,86.2495,273.8648,4.3298e-05,4.01e-06,0.0,0 STARLINK-3364,1 51152U 22005BA  23318.81512664  .00000401  00000-0  43298-4 0  9998,2 51152  53.2158 146.0130 0001314  86.2495 273.8648 15.08838849102014,6917.884,95.438,540.658,538.84,0.0
51152.0,STARLINK-3364,PAYLOAD,2023-11-15 13:03:01,15.08840199,0.0001311,53.2157,142.7418,85.4428,274.6713,3.6815e-05,2.98e-06,0.0,0 STARLINK-3364,1 51152U 22005BA  23319.54376620  .00000298  00000-0  36815-4 0  9990,2 51152  53.2157 142.7418 0001311  85.4428 274.6713 15.08840199101011,6917.88,95.438,540.652,538.838,0.0
51152.0,STARLINK-3364,PAYLOAD,2023-11-15 19:24:33,15.08842917,0.0001273,53.2157,141.5531,86.7189,273.3949,5.0637e-05,5.18e-06,0.0,0 STARLINK-3364,1 51152U 22005BA  23319.80872372  .00000518  00000-0  50637-4 0  9997,2 51152  53.2157 141.5531 0001273  86.7189 273.3949 15.08842917101050,6917.871,95.437,540.617,538.856,0.0
51152.0,STARLINK-3364,PAYLOAD,2023-11-16 11:18:25,15.08834225,0.0001269,53.2151,138.5807,91.1742,268.9396,3.652e-05,2.93e-06,0.0,0 STARLINK-3364,1 51152U 22005BA  23320.47113048  .00000293  00000-0  36520-4 0  9995,2 51152  53.2151 138.5807 0001269  91.1742 268.9396 15.08834225102269,6917.898,95.438,540.641,538.885,0.0
